LEMUR-2-DEMBITZ         
1 42842U 17042T   26068.47492167  .00020231  00000+0  76561-3 0  9991
2 42842  97.3807 250.9241 0006961  17.1421 343.0051 15.26947128473114
STARLINK-31392          
1 59530U 24073V   26068.41868452 -.00001949  00000+0 -61324-4 0  9992
2 59530  43.0053 319.5899 0002057 264.0165  96.0453 15.27568337106136
